CCSDS_OMM_VERS = 2.0
CREATION_DATE  = 
ORIGINATOR     = 

OBJECT_NAME    = UNKNOWN
OBJECT_ID      = 
CENTER_NAME    = EARTH
REF_FRAME      = TEME
TIME_SYSTEM    = UTC
MEAN_ELEMENT_THEORY = SGP/SGP4

EPOCH          = 2026-03-11T10:06:45.218016
MEAN_MOTION    = 14.49545541
ECCENTRICITY   = .0038489
INCLINATION    = 74.0252
RA_OF_ASC_NODE = 77.1642
ARG_OF_PERICENTER = 356.4169
MEAN_ANOMALY   = 3.6709

EPHEMERIS_TYPE = 0
CLASSIFICATION_TYPE = U
NORAD_CAT_ID   = 82617
ELEMENT_SET_NO = 999
REV_AT_EPOCH   = 64967
BSTAR          = .20572E-3
MEAN_MOTION_DOT = .768E-5
MEAN_MOTION_DDOT = 0

CCSDS_OMM_VERS = 2.0
CREATION_DATE  = 
ORIGINATOR     = 

OBJECT_NAME    = UNKNOWN
OBJECT_ID      = 
CENTER_NAME    = EARTH
REF_FRAME      = TEME
TIME_SYSTEM    = UTC
MEAN_ELEMENT_THEORY = SGP/SGP4

EPOCH          = 2026-03-05T18:48:55.282752
MEAN_MOTION    = 13.16435767
ECCENTRICITY   = .0016249
INCLINATION    = 82.4776
RA_OF_ASC_NODE = 189.4112
ARG_OF_PERICENTER = 239.1900
MEAN_ANOMALY   = 274.5257

EPHEMERIS_TYPE = 0
CLASSIFICATION_TYPE = U
NORAD_CAT_ID   = 82627
ELEMENT_SET_NO = 999
REV_AT_EPOCH   = 58975
BSTAR          = .17379E-2
MEAN_MOTION_DOT = .675E-5
MEAN_MOTION_DDOT = 0

CCSDS_OMM_VERS = 2.0
CREATION_DATE  = 
ORIGINATOR     = 

OBJECT_NAME    = UNKNOWN
OBJECT_ID      = 
CENTER_NAME    = EARTH
REF_FRAME      = TEME
TIME_SYSTEM    = UTC
MEAN_ELEMENT_THEORY = SGP/SGP4

EPOCH          = 2026-03-13T17:08:38.338368
MEAN_MOTION    = 14.07641212
ECCENTRICITY   = .0136281
INCLINATION    = 98.9734
RA_OF_ASC_NODE = 347.6599
ARG_OF_PERICENTER = 343.1734
MEAN_ANOMALY   = 16.4937

EPHEMERIS_TYPE = 0
CLASSIFICATION_TYPE = U
NORAD_CAT_ID   = 82642
ELEMENT_SET_NO = 999
REV_AT_EPOCH   = 62893
BSTAR          = .14465E-2
MEAN_MOTION_DOT = .2615E-4
MEAN_MOTION_DDOT = 0

CCSDS_OMM_VERS = 2.0
CREATION_DATE  = 
ORIGINATOR     = 

OBJECT_NAME    = UNKNOWN
OBJECT_ID      = 
CENTER_NAME    = EARTH
REF_FRAME      = TEME
TIME_SYSTEM    = UTC
MEAN_ELEMENT_THEORY = SGP/SGP4

EPOCH          = 2026-03-14T21:49:43.066272
MEAN_MOTION    = 14.20418026
ECCENTRICITY   = .0211305
INCLINATION    = 98.1585
RA_OF_ASC_NODE = 140.9089
ARG_OF_PERICENTER = 125.9310
MEAN_ANOMALY   = 236.1679

EPHEMERIS_TYPE = 0
CLASSIFICATION_TYPE = U
NORAD_CAT_ID   = 82683
ELEMENT_SET_NO = 999
REV_AT_EPOCH   = 47535
BSTAR          = .55229E-3
MEAN_MOTION_DOT = .1443E-4
MEAN_MOTION_DDOT = 0

CCSDS_OMM_VERS = 2.0
CREATION_DATE  = 
ORIGINATOR     = 

OBJECT_NAME    = UNKNOWN
OBJECT_ID      = 
CENTER_NAME    = EARTH
REF_FRAME      = TEME
TIME_SYSTEM    = UTC
MEAN_ELEMENT_THEORY = SGP/SGP4

EPOCH          = 2026-03-11T03:50:41.750880
MEAN_MOTION    = 13.70037459
ECCENTRICITY   = .003942
INCLINATION    = 100.5292
RA_OF_ASC_NODE = 46.8263
ARG_OF_PERICENTER = 161.5718
MEAN_ANOMALY   = 198.6863

EPHEMERIS_TYPE = 0
CLASSIFICATION_TYPE = U
NORAD_CAT_ID   = 82693
ELEMENT_SET_NO = 999
REV_AT_EPOCH   = 56586
BSTAR          = .31295E-2
MEAN_MOTION_DOT = .2715E-4
MEAN_MOTION_DDOT = 0

CCSDS_OMM_VERS = 2.0
CREATION_DATE  = 
ORIGINATOR     = 

OBJECT_NAME    = UNKNOWN
OBJECT_ID      = 
CENTER_NAME    = EARTH
REF_FRAME      = TEME
TIME_SYSTEM    = UTC
MEAN_ELEMENT_THEORY = SGP/SGP4

EPOCH          = 2026-03-10T13:32:40.042176
MEAN_MOTION    = 13.29879930
ECCENTRICITY   = .0688727
INCLINATION    = 61.6079
RA_OF_ASC_NODE = 275.1928
ARG_OF_PERICENTER = 322.3799
MEAN_ANOMALY   = 33.0857

EPHEMERIS_TYPE = 0
CLASSIFICATION_TYPE = U
NORAD_CAT_ID   = 82698
ELEMENT_SET_NO = 999
REV_AT_EPOCH   = 55005
BSTAR          = .61265E-3
MEAN_MOTION_DOT = .982E-5
MEAN_MOTION_DDOT = 0

CCSDS_OMM_VERS = 2.0
CREATION_DATE  = 
ORIGINATOR     = 

OBJECT_NAME    = UNKNOWN
OBJECT_ID      = 
CENTER_NAME    = EARTH
REF_FRAME      = TEME
TIME_SYSTEM    = UTC
MEAN_ELEMENT_THEORY = SGP/SGP4

EPOCH          = 2026-03-10T12:57:51.369696
MEAN_MOTION    = 12.90744392
ECCENTRICITY   = .0060659
INCLINATION    = 102.1657
RA_OF_ASC_NODE = 286.2036
ARG_OF_PERICENTER = 105.2752
MEAN_ANOMALY   = 255.5055

EPHEMERIS_TYPE = 0
CLASSIFICATION_TYPE = U
NORAD_CAT_ID   = 82708
ELEMENT_SET_NO = 999
REV_AT_EPOCH   = 53484
BSTAR          = .30849E-2
MEAN_MOTION_DOT = .769E-5
MEAN_MOTION_DDOT = 0

CCSDS_OMM_VERS = 2.0
CREATION_DATE  = 
ORIGINATOR     = 

OBJECT_NAME    = UNKNOWN
OBJECT_ID      = 
CENTER_NAME    = EARTH
REF_FRAME      = TEME
TIME_SYSTEM    = UTC
MEAN_ELEMENT_THEORY = SGP/SGP4

EPOCH          = 2026-03-11T18:20:52.183104
MEAN_MOTION    = 12.17864370
ECCENTRICITY   = .0837379
INCLINATION    = 67.9711
RA_OF_ASC_NODE = 351.9314
ARG_OF_PERICENTER = 310.0583
MEAN_ANOMALY   = 42.9800

EPHEMERIS_TYPE = 0
CLASSIFICATION_TYPE = U
NORAD_CAT_ID   = 82729
ELEMENT_SET_NO = 999
REV_AT_EPOCH   = 54604
BSTAR          = -.96731E-3
MEAN_MOTION_DOT = -.341E-5
MEAN_MOTION_DDOT = 0

CCSDS_OMM_VERS = 2.0
CREATION_DATE  = 
ORIGINATOR     = 

OBJECT_NAME    = UNKNOWN
OBJECT_ID      = 
CENTER_NAME    = EARTH
REF_FRAME      = TEME
TIME_SYSTEM    = UTC
MEAN_ELEMENT_THEORY = SGP/SGP4

EPOCH          = 2026-03-11T22:15:17.094816
MEAN_MOTION    = 13.82978156
ECCENTRICITY   = .0171092
INCLINATION    = 99.0946
RA_OF_ASC_NODE = 229.2492
ARG_OF_PERICENTER = 55.1105
MEAN_ANOMALY   = 94.8047

EPHEMERIS_TYPE = 0
CLASSIFICATION_TYPE = U
NORAD_CAT_ID   = 82739
ELEMENT_SET_NO = 999
REV_AT_EPOCH   = 61843
BSTAR          = .44721E-3
MEAN_MOTION_DOT = .505E-5
MEAN_MOTION_DDOT = 0

CCSDS_OMM_VERS = 2.0
CREATION_DATE  = 
ORIGINATOR     = 

OBJECT_NAME    = UNKNOWN
OBJECT_ID      = 
CENTER_NAME    = EARTH
REF_FRAME      = TEME
TIME_SYSTEM    = UTC
MEAN_ELEMENT_THEORY = SGP/SGP4

EPOCH          = 2026-03-15T11:31:51.476160
MEAN_MOTION    = 13.66503261
ECCENTRICITY   = .0196692
INCLINATION    = 102.8424
RA_OF_ASC_NODE = 144.7979
ARG_OF_PERICENTER = 60.3808
MEAN_ANOMALY   = 301.6759

EPHEMERIS_TYPE = 0
CLASSIFICATION_TYPE = U
NORAD_CAT_ID   = 82741
ELEMENT_SET_NO = 999
REV_AT_EPOCH   = 60974
BSTAR          = .18405E-2
MEAN_MOTION_DOT = .1675E-4
MEAN_MOTION_DDOT = 0

CCSDS_OMM_VERS = 2.0
CREATION_DATE  = 
ORIGINATOR     = 

OBJECT_NAME    = UNKNOWN
OBJECT_ID      = 
CENTER_NAME    = EARTH
REF_FRAME      = TEME
TIME_SYSTEM    = UTC
MEAN_ELEMENT_THEORY = SGP/SGP4

EPOCH          = 2026-03-15T04:44:15.467136
MEAN_MOTION    = 13.09096545
ECCENTRICITY   = .0019212
INCLINATION    = 90.3465
RA_OF_ASC_NODE = 41.1211
ARG_OF_PERICENTER = 222.9289
MEAN_ANOMALY   = 137.0340

EPHEMERIS_TYPE = 0
CLASSIFICATION_TYPE = U
NORAD_CAT_ID   = 82783
ELEMENT_SET_NO = 999
REV_AT_EPOCH   = 51645
BSTAR          = .3371E-2
MEAN_MOTION_DOT = .1164E-4
MEAN_MOTION_DDOT = 0

CCSDS_OMM_VERS = 2.0
CREATION_DATE  = 
ORIGINATOR     = 

OBJECT_NAME    = UNKNOWN
OBJECT_ID      = 
CENTER_NAME    = EARTH
REF_FRAME      = TEME
TIME_SYSTEM    = UTC
MEAN_ELEMENT_THEORY = SGP/SGP4

EPOCH          = 2026-02-28T11:33:56.602368
MEAN_MOTION    = 14.23311743
ECCENTRICITY   = .0027126
INCLINATION    = 82.9509
RA_OF_ASC_NODE = 129.4832
ARG_OF_PERICENTER = 292.8683
MEAN_ANOMALY   = 82.6977

EPHEMERIS_TYPE = 0
CLASSIFICATION_TYPE = U
NORAD_CAT_ID   = 82798
ELEMENT_SET_NO = 999
REV_AT_EPOCH   = 32343
BSTAR          = .83774E-3
MEAN_MOTION_DOT = .192E-4
MEAN_MOTION_DDOT = 0

