UNKNOWN                 
1 82617U          26070.42135669  .00000768  00000+0  20572-3 0  9994
2 82617  74.0252  77.1642 0038489 356.4169   3.6709 14.49545541649678
UNKNOWN                 
1 82627U          26064.78397318  .00000675  00000+0  17379-2 0  9995
2 82627  82.4776 189.4112 0016249 239.1900 274.5257 13.16435767589752
UNKNOWN                 
1 82642U          26072.71433262  .00002615  00000+0  14465-2 0  9992
2 82642  98.9734 347.6599 0136281 343.1734  16.4937 14.07641212628939
UNKNOWN                 
1 82683U          26073.90952623  .00001443  00000+0  55229-3 0  9998
2 82683  98.1585 140.9089 0211305 125.9310 236.1679 14.20418026475355
UNKNOWN                 
1 82693U          26070.16020545  .00002715  00000+0  31295-2 0  9992
2 82693 100.5292  46.8263 0039420 161.5718 198.6863 13.70037459565865
UNKNOWN                 
1 82698U          26069.56435234  .00000982  00000+0  61265-3 0  9999
2 82698  61.6079 275.1928 0688727 322.3799  33.0857 13.29879930550053
UNKNOWN                 
1 82708U          26069.54017789  .00000769  00000+0  30849-2 0  9996
2 82708 102.1657 286.2036 0060659 105.2752 255.5055 12.90744392534846
UNKNOWN                 
1 82729U          26070.76449286 -.00000341  00000+0 -96731-3 0  9997
2 82729  67.9711 351.9314 0837379 310.0583  42.9800 12.17864370546045
UNKNOWN                 
1 82739U          26070.92728119  .00000505  00000+0  44721-3 0  9993
2 82739  99.0946 229.2492 0171092  55.1105  94.8047 13.82978156618439
UNKNOWN                 
1 82741U          26074.48045690  .00001675  00000+0  18405-2 0  9995
2 82741 102.8424 144.7979 0196692  60.3808 301.6759 13.66503261609744
UNKNOWN                 
1 82783U          26074.19740124  .00001164  00000+0  33710-2 0  9992
2 82783  90.3465  41.1211 0019212 222.9289 137.0340 13.09096545516457
UNKNOWN                 
1 82798U          26059.48190512  .00001920  00000+0  83774-3 0  9999
2 82798  82.9509 129.4832 0027126 292.8683  82.6977 14.23311743323437
